NORAD_CAT_ID,OBJECT_NAME,OBJECT_TYPE,EPOCH,MEAN_MOTION,ECCENTRICITY,INCLINATION,RA_OF_ASC_NODE,ARG_OF_PERICENTER,MEAN_ANOMALY,BSTAR,MEAN_MOTION_DOT,MEAN_MOTION_DDOT,TLE_LINE0,TLE_LINE1,TLE_LINE2,SEMIMAJOR_AXIS,PERIOD,APOGEE,PERIGEE,DECAYED
55921.0,STARLINK-5861,PAYLOAD,2024-07-12 13:05:20,14.9832693,0.0003257,70.0002,30.1898,270.2859,89.7927,6.3596e-06,-1.7e-07,0.0,0 STARLINK-5861,1 55921U 23037H   24194.54537501 -.00000017  00000-0  63596-5 0  9990,2 55921  70.0002  30.1898 0003257 270.2859  89.7927 14.98326930 73188,6950.202,96.107,574.331,569.804,0.0
55921.0,STARLINK-5861,PAYLOAD,2024-07-12 14:41:28,14.98327797,0.000326,70.0002,30.0214,270.1615,89.917,1.5875e-05,9.6e-07,0.0,0 STARLINK-5861,1 55921U 23037H   24194.61213426  .00000096  00000-0  15875-4 0  9997,2 55921  70.0002  30.0214 0003260 270.1615  89.9170 14.98327797 72859,6950.2,96.107,574.33,569.799,0.0
55921.0,STARLINK-5861,PAYLOAD,2024-07-12 22:42:08,14.98332077,0.0003261,69.9999,29.1803,270.4641,89.6145,2.0737e-05,1.54e-06,0.0,0 STARLINK-5861,1 55921U 23037H   24194.94593172  .00000154  00000-0  20737-4 0  9990,2 55921  69.9999  29.1803 0003261 270.4641  89.6145 14.98332077 72909,6950.186,96.107,574.318,569.785,0.0
55921.0,STARLINK-5861,PAYLOAD,2024-07-13 14:43:29,14.98330355,0.0003279,69.9999,27.4972,270.7847,89.2936,-1.0542e-05,-2.19e-06,0.0,0 STARLINK-5861,1 55921U 23037H   24195.61353365 -.00000219  00000-0 -10542-4 0  9990,2 55921  69.9999  27.4972 0003279 270.7847  89.2936 14.98330355 73000,6950.192,96.107,574.336,569.778,0.0
55921.0,STARLINK-5861,PAYLOAD,2024-07-13 21:08:01,14.98332957,0.0003272,70.0,26.8235,270.1176,89.9608,1.9434e-05,1.39e-06,0.0,0 STARLINK-5861,1 55921U 23037H   24195.88057096  .00000139  00000-0  19434-4 0  9999,2 55921  70.0000  26.8235 0003272 270.1176  89.9608 14.98332957 73387,6950.184,96.107,574.323,569.775,0.0
55921.0,STARLINK-5861,PAYLOAD,2024-07-13 22:44:09,14.98334293,0.0003263,70.0,26.6552,270.0588,90.0197,3.4003e-05,3.13e-06,0.0,0 STARLINK-5861,1 55921U 23037H   24195.94732956  .00000313  00000-0  34003-4 0  9994,2 55921  70.0000  26.6552 0003263 270.0588  90.0197 14.98334293 73058,6950.18,96.107,574.312,569.777,0.0
55921.0,STARLINK-5861,PAYLOAD,2024-07-14 14:45:30,14.98330713,0.0003211,70.0003,24.9717,270.1795,89.8997,4.3627e-05,4.28e-06,0.0,0 STARLINK-5861,1 55921U 23037H   24196.61493064  .00000428  00000-0  43627-4 0  9992,2 55921  70.0003  24.9717 0003211 270.1795  89.8997 14.98330713 73157,6950.191,96.107,574.287,569.824,0.0
55921.0,STARLINK-5861,PAYLOAD,2024-07-14 21:10:01,14.98335763,0.000319,70.0003,24.2986,270.1372,89.9421,6.7677e-05,7.15e-06,0.0,0 STARLINK-5861,1 55921U 23037H   24196.88196626  .00000715  00000-0  67677-4 0  9995,2 55921  70.0003  24.2986 0003190 270.1372  89.9421 14.98335763 73530,6950.175,96.107,574.257,569.823,0.0
55921.0,STARLINK-5861,PAYLOAD,2024-07-14 22:46:09,14.98336273,0.0003187,70.0004,24.1302,270.1455,89.9339,7.2258e-05,7.69e-06,0.0,0 STARLINK-5861,1 55921U 23037H   24196.94872558  .00000769  00000-0  72258-4 0  9997,2 55921  70.0004  24.1302 0003187 270.1455  89.9339 14.98336273 73209,6950.173,96.107,574.254,569.823,0.0
55921.0,STARLINK-5861,PAYLOAD,2024-07-15 13:11:23,14.9832954,0.0003096,70.0006,22.6154,270.0104,90.07,-3.0318e-05,-4.55e-06,0.0,0 STARLINK-5861,1 55921U 23037H   24197.54957225 -.00000455  00000-0 -30318-4 0  9994,2 55921  70.0006  22.6154 0003096 270.0104  90.0700 14.98329540 73639,6950.194,96.107,574.211,569.908,0.0
55921.0,STARLINK-5861,PAYLOAD,2024-07-15 14:47:31,14.98329387,0.0003098,70.0006,22.4471,269.9925,90.0879,-3.146e-05,-4.68e-06,0.0,0 STARLINK-5861,1 55921U 23037H   24197.61633235 -.00000468  00000-0 -31460-4 0  9997,2 55921  70.0006  22.4471 0003098 269.9925  90.0879 14.98329387 73309,6950.195,96.107,574.213,569.907,0.0
55921.0,STARLINK-5861,PAYLOAD,2024-07-15 21:12:03,14.98330397,0.0003049,70.0008,21.7742,268.8223,91.2587,-7.8448e-06,-1.87e-06,0.0,0 STARLINK-5861,1 55921U 23037H   24197.88337076 -.00000187  00000-0 -78448-5 0  9996,2 55921  70.0008  21.7742 0003049 268.8223  91.2587 14.98330397 73345,6950.192,96.107,574.176,569.938,0.0
55921.0,STARLINK-5861,PAYLOAD,2024-07-16 13:13:23,14.98333602,0.0003013,70.0009,20.0908,269.9886,90.0928,-1.8271e-05,-3.11e-06,0.0,0 STARLINK-5861,1 55921U 23037H   24198.55096869 -.00000311  00000-0 -18271-4 0  9999,2 55921  70.0009  20.0908 0003013 269.9886  90.0928 14.98333602 73786,6950.182,96.107,574.141,569.953,0.0
55921.0,STARLINK-5861,PAYLOAD,2024-07-16 14:49:31,14.98333164,0.0003025,70.0008,19.9225,269.6918,90.3894,-2.3188e-05,-3.7e-06,0.0,0 STARLINK-5861,1 55921U 23037H   24198.61772891 -.00000370  00000-0 -23188-4 0  9990,2 55921  70.0008  19.9225 0003025 269.6918  90.3894 14.98333164 73452,6950.183,96.107,574.151,569.946,0.0
55921.0,STARLINK-5861,PAYLOAD,2024-07-16 21:14:03,14.98335145,0.0003016,70.001,19.2493,269.3526,90.7288,2.1383e-06,-6.7e-07,0.0,0 STARLINK-5861,1 55921U 23037H   24198.88476637 -.00000067  00000-0  21383-5 0  9996,2 55921  70.0010  19.2493 0003016 269.3526  90.7288 14.98335145 73493,6950.177,96.107,574.138,569.946,0.0
55921.0,STARLINK-5861,PAYLOAD,2024-07-17 13:15:25,14.98320103,0.0002922,70.0013,17.5663,266.8775,93.2049,-8.4684e-05,-1.103e-05,0.0,0 STARLINK-5861,1 55921U 23037H   24199.55237903 -.00001103  00000-0 -84684-4 0  9997,2 55921  70.0013  17.5663 0002922 266.8775  93.2049 14.98320103 73939,6950.223,96.108,574.119,570.058,0.0
55921.0,STARLINK-5861,PAYLOAD,2024-07-17 14:51:33,14.98319451,0.0002933,70.0013,17.398,266.8605,93.2218,-8.9884e-05,-1.165e-05,0.0,0 STARLINK-5861,1 55921U 23037H   24199.61913993 -.00001165  00000-0 -89884-4 0  9999,2 55921  70.0013  17.3980 0002933 266.8605  93.2218 14.98319451 73609,6950.226,96.108,574.129,570.052,0.0
55921.0,STARLINK-5861,PAYLOAD,2024-07-17 21:16:05,14.98322257,0.0002863,70.0013,16.7249,265.9677,94.1155,-3.4548e-05,-5.05e-06,0.0,0 STARLINK-5861,1 55921U 23037H   24199.88617804 -.00000505  00000-0 -34548-4 0  9994,2 55921  70.0013  16.7249 0002863 265.9677  94.1155 14.98322257 73643,6950.217,96.107,574.072,570.092,0.0
55921.0,STARLINK-5861,PAYLOAD,2024-07-18 05:16:45,14.98327346,0.000285,70.0016,15.8816,272.4972,87.5861,-1.3184e-06,-1.09e-06,0.0,0 STARLINK-5861,1 55921U 23037H   24200.21997568 -.00000109  00000-0 -13184-5 0  9996,2 55921  70.0016  15.8816 0002850 272.4972  87.5861 14.98327346 74031,6950.201,96.107,574.047,570.085,0.0
55921.0,STARLINK-5861,PAYLOAD,2024-07-18 13:17:25,14.98332105,0.0003019,70.0009,15.0403,271.4563,88.625,6.8606e-05,7.26e-06,0.0,0 STARLINK-5861,1 55921U 23037H   24200.55377030  .00000726  00000-0  68606-4 0  9990,2 55921  70.0009  15.0403 0003019 271.4563  88.6250 14.98332105 73740,6950.186,96.107,574.15,569.953,0.0
55921.0,STARLINK-5861,PAYLOAD,2024-07-18 21:18:05,14.98335938,0.0002973,70.0011,14.2004,262.9261,97.156,6.4564e-05,6.78e-06,0.0,0 STARLINK-5861,1 55921U 23037H   24200.88756720  .00000678  00000-0  64564-4 0  9998,2 55921  70.0011  14.2004 0002973 262.9261  97.1560 14.98335938 74139,6950.175,96.107,574.106,569.973,0.0
55921.0,STARLINK-5861,PAYLOAD,2024-07-19 13:19:26,14.98324028,0.0003061,70.0007,12.5159,271.0726,89.0082,0.00010682,1.182e-05,0.0,0 STARLINK-5861,1 55921U 23037H   24201.55517333  .00001182  00000-0  10682-3 0  9990,2 55921  70.0007  12.5159 0003061 271.0726  89.0082 14.98324028 74230,6950.211,96.107,574.204,569.949,0.0
55921.0,STARLINK-5861,PAYLOAD,2024-07-19 14:55:35,14.98324358,0.0003062,70.0008,12.3475,271.0098,89.071,0.00010785,1.194e-05,0.0,0 STARLINK-5861,1 55921U 23037H   24201.62193331  .00001194  00000-0  10785-3 0  9993,2 55921  70.0008  12.3475 0003062 271.0098  89.0710 14.98324358 73900,6950.21,96.107,574.203,569.947,0.0
55921.0,STARLINK-5861,PAYLOAD,2024-07-19 21:20:06,14.98331955,0.0003084,70.0008,11.6744,271.1624,88.9181,0.00013179,1.48e-05,0.0,0 STARLINK-5861,1 55921U 23037H   24201.88896818  .00001480  00000-0  13179-3 0  9999,2 55921  70.0008  11.6744 0003084 271.1624  88.9181 14.98331955 74284,6950.187,96.107,574.195,569.908,0.0
55921.0,STARLINK-5861,PAYLOAD,2024-07-20 14:57:35,14.98329278,0.000311,70.0015,9.8225,270.3171,89.7632,4.4062e-05,4.33e-06,0.0,0 STARLINK-5861,1 55921U 23037H   24202.62333138  .00000433  00000-0  44062-4 0  9996,2 55921  70.0015   9.8225 0003110 270.3171  89.7632 14.98329278 74053,6950.195,96.107,574.222,569.899,0.0
55921.0,STARLINK-5861,PAYLOAD,2024-07-20 21:22:07,14.98338637,0.0003022,70.0011,9.1494,270.4055,89.6757,2.8717e-05,2.5e-06,0.0,0 STARLINK-5861,1 55921U 23037H   24202.89036519  .00000250  00000-0  28717-4 0  9994,2 55921  70.0011   9.1494 0003022 270.4055  89.6757 14.98338637 74094,6950.166,96.106,574.132,569.931,0.0
55921.0,STARLINK-5861,PAYLOAD,2024-07-21 13:23:28,14.98321704,0.0002885,70.0018,7.4676,267.2132,92.8697,0.00015022,1.699e-05,0.0,0 STARLINK-5861,1 55921U 23037H   24203.55797154  .00001699  00000-0  15022-3 0  9999,2 55921  70.0018   7.4676 0002885 267.2132  92.8697 14.98321704 74535,6950.219,96.108,574.089,570.078,0.0
55921.0,STARLINK-5861,PAYLOAD,2024-07-21 14:59:37,14.98301153,0.0003046,70.0018,7.2993,264.5871,95.494,0.00050525,5.936e-05,0.0,0 STARLINK-5861,1 55921U 23037H   24203.62473634  .00005936  00000-0  50525-3 0  9996,2 55921  70.0018   7.2993 0003046 264.5871  95.4940 14.98301153 74205,6950.282,96.109,574.264,570.03,0.0
55921.0,STARLINK-5861,PAYLOAD,2024-07-21 21:24:08,14.98331932,0.0002755,70.0019,6.6261,264.7752,95.3092,2.9745e-05,2.62e-06,0.0,0 STARLINK-5861,1 55921U 23037H   24203.89176783  .00000262  00000-0  29745-4 0  9998,2 55921  70.0019   6.6261 0002755 264.7752  95.3092 14.98331932 74242,6950.187,96.107,573.967,570.137,0.0
55921.0,STARLINK-5861,PAYLOAD,2024-07-22 10:13:13,14.98331041,0.0002754,70.0019,5.2797,264.1493,95.9352,-1.4274e-05,-2.63e-06,0.0,0 STARLINK-5861,1 55921U 23037H   24204.42584893 -.00000263  00000-0 -14274-4 0  9997,2 55921  70.0019   5.2797 0002754 264.1493  95.9352 14.98331041 74321,6950.19,96.107,573.969,570.141,0.0
